NORAD_CAT_ID,OBJECT_NAME,OBJECT_TYPE,EPOCH,MEAN_MOTION,ECCENTRICITY,INCLINATION,RA_OF_ASC_NODE,ARG_OF_PERICENTER,MEAN_ANOMALY,BSTAR,MEAN_MOTION_DOT,MEAN_MOTION_DDOT,TLE_LINE0,TLE_LINE1,TLE_LINE2,SEMIMAJOR_AXIS,PERIOD,APOGEE,PERIGEE,DECAYED
56495.0,STARLINK-5529,PAYLOAD,2024-04-17 20:27:33,14.98315296,0.0003072,70.0017,46.2294,274.1429,85.9379,-5.3073e-05,-7.26e-06,0.0,0 STARLINK-5529,1 56495U 23064AZ  24108.85246623 -.00000726  00000-0 -53073-4 0  9994,2 56495  70.0017  46.2294 0003072 274.1429  85.9379 14.98315296 53113,6950.238,96.108,574.238,569.968,0.0
56495.0,STARLINK-5529,PAYLOAD,2024-04-17 22:03:41,14.9831161,0.0003302,70.0013,46.0617,275.8737,84.2045,-5.0736e-05,-6.98e-06,0.0,0 STARLINK-5529,1 56495U 23064AZ  24108.91922885 -.00000698  00000-0 -50736-4 0  9993,2 56495  70.0013  46.0617 0003302 275.8737  84.2045 14.98311610 52760,6950.25,96.108,574.41,569.82,0.0
56495.0,STARLINK-5529,PAYLOAD,2024-04-18 04:28:14,14.98303048,0.0002577,70.0015,45.3885,239.8198,120.2706,-7.2733e-05,-9.6e-06,0.0,0 STARLINK-5529,1 56495U 23064AZ  24109.18627692 -.00000960  00000-0 -72733-4 0  9994,2 56495  70.0015  45.3885 0002577 239.8198 120.2706 14.98303048 53161,6950.276,96.109,573.932,570.35,0.0
56495.0,STARLINK-5529,PAYLOAD,2024-04-18 06:04:22,14.98304569,0.0002646,70.0015,45.2211,235.8133,124.2776,-5.8697e-05,-7.93e-06,0.0,0 STARLINK-5529,1 56495U 23064AZ  24109.25303635 -.00000793  00000-0 -58697-4 0  9997,2 56495  70.0015  45.2211 0002646 235.8133 124.2776 14.98304569 52816,6950.272,96.109,573.976,570.297,0.0
56495.0,STARLINK-5529,PAYLOAD,2024-04-18 20:29:34,14.98326181,0.0003254,70.0009,43.7023,273.9732,86.1055,-0.00012482,-1.582e-05,0.0,0 STARLINK-5529,1 56495U 23064AZ  24109.85386742 -.00001582  00000-0 -12482-3 0  9991,2 56495  70.0009  43.7023 0003254 273.9732  86.1055 14.98326181 53267,6950.205,96.107,574.331,569.808,0.0
56495.0,STARLINK-5529,PAYLOAD,2024-04-18 22:05:42,14.98327103,0.0003271,70.0012,43.534,279.3353,80.7436,-8.985e-05,-1.165e-05,0.0,0 STARLINK-5529,1 56495U 23064AZ  24109.92062640 -.00001165  00000-0 -89850-4 0  9998,2 56495  70.0012  43.5340 0003271 279.3353  80.7436 14.98327103 52918,6950.202,96.107,574.34,569.793,0.0
56495.0,STARLINK-5529,PAYLOAD,2024-04-19 04:30:13,14.98337564,0.0002368,70.0029,42.8659,252.2327,107.8573,-4.5148e-05,-6.32e-06,0.0,0 STARLINK-5529,1 56495U 23064AZ  24110.18765826 -.00000632  00000-0 -45148-4 0  9994,2 56495  70.0029  42.8659 0002368 252.2327 107.8573 14.98337564 53318,6950.169,96.107,573.68,570.389,0.0
56495.0,STARLINK-5529,PAYLOAD,2024-04-19 06:06:20,14.9834663,0.0003008,70.0015,42.6966,255.3487,104.7338,1.5486e-05,9.2e-07,0.0,0 STARLINK-5529,1 56495U 23064AZ  24110.25440916  .00000092  00000-0  15486-4 0  9992,2 56495  70.0015  42.6966 0003008 255.3487 104.7338 14.98346630 53325,6950.141,96.106,574.097,569.916,0.0
56495.0,STARLINK-5529,PAYLOAD,2024-04-19 20:31:33,14.98324724,0.0002562,70.0026,41.1819,255.7453,104.3422,0.00028933,3.36e-05,0.0,0 STARLINK-5529,1 56495U 23064AZ  24110.85525386  .00003360  00000-0  28933-3 0  9994,2 56495  70.0026  41.1819 0002562 255.7453 104.3422 14.98324724 53419,6950.209,96.107,573.855,570.294,0.0
56495.0,STARLINK-5529,PAYLOAD,2024-04-19 22:07:41,14.98325015,0.0002347,70.0033,41.0135,257.1985,102.8912,0.00034647,4.043e-05,0.0,0 STARLINK-5529,1 56495U 23064AZ  24110.92201219  .00004043  00000-0  34647-3 0  9996,2 56495  70.0033  41.0135 0002347 257.1985 102.8912 14.98325015 53066,6950.208,96.107,573.705,570.442,0.0
56495.0,STARLINK-5529,PAYLOAD,2024-04-20 04:32:13,14.98335647,0.0002361,70.0049,40.3424,214.7707,145.3298,0.00043855,5.144e-05,0.0,0 STARLINK-5529,1 56495U 23064AZ  24111.18904200  .00005144  00000-0  43855-3 0  9999,2 56495  70.0049  40.3424 0002361 214.7707 145.3298 14.98335647 53468,6950.175,96.107,573.681,570.399,0.0
56495.0,STARLINK-5529,PAYLOAD,2024-04-20 06:08:20,14.98345917,0.0002626,70.0024,40.1724,249.0687,111.0191,0.00045063,5.29e-05,0.0,0 STARLINK-5529,1 56495U 23064AZ  24111.25579452  .00005290  00000-0  45063-3 0  9999,2 56495  70.0024  40.1724 0002626 249.0687 111.0191 14.98345917 53478,6950.144,96.106,573.834,570.184,0.0
56495.0,STARLINK-5529,PAYLOAD,2024-04-20 20:33:35,14.98327494,0.0002948,70.0018,38.656,222.3797,137.7135,-0.00020299,-2.514e-05,0.0,0 STARLINK-5529,1 56495U 23064AZ  24111.85666481 -.00002514  00000-0 -20299-3 0  9996,2 56495  70.0018  38.6560 0002948 222.3797 137.7135 14.98327494 53567,6950.201,96.107,574.115,570.017,0.0
56495.0,STARLINK-5529,PAYLOAD,2024-04-21 04:34:17,14.98312265,0.0002855,70.0023,37.8149,251.824,108.2608,-0.00030036,-3.673e-05,0.0,0 STARLINK-5529,1 56495U 23064AZ  24112.19048052 -.00003673  00000-0 -30036-3 0  9999,2 56495  70.0023  37.8149 0002855 251.8240 108.2608 14.98312265 53618,6950.248,96.108,574.097,570.128,0.0
56495.0,STARLINK-5529,PAYLOAD,2024-04-21 20:35:36,14.98336867,0.0002843,69.9994,36.1253,270.5076,89.5757,-0.00016084,-2.012e-05,0.0,0 STARLINK-5529,1 56495U 23064AZ  24112.85806424 -.00002012  00000-0 -16084-3 0  9990,2 56495  69.9994  36.1253 0002843 270.5076  89.5757 14.98336867 53713,6950.172,96.107,574.013,570.061,0.0
56495.0,STARLINK-5529,PAYLOAD,2024-04-21 22:11:44,14.98334877,0.0002726,69.9998,35.9559,265.26,94.8248,-0.00013357,-1.686e-05,0.0,0 STARLINK-5529,1 56495U 23064AZ  24112.92482419 -.00001686  00000-0 -13357-3 0  9998,2 56495  69.9998  35.9559 0002726 265.2600  94.8248 14.98334877 53361,6950.178,96.107,573.937,570.148,0.0
56495.0,STARLINK-5529,PAYLOAD,2024-04-22 04:36:15,14.9835429,0.0002544,70.0027,35.2914,246.6271,113.462,6.0999e-06,-2e-07,0.0,0 STARLINK-5529,1 56495U 23064AZ  24113.19184647 -.00000020  00000-0  60999-5 0  9996,2 56495  70.0027  35.2914 0002544 246.6271 113.4620 14.98354290 53767,6950.118,96.105,573.751,570.215,0.0
56495.0,STARLINK-5529,PAYLOAD,2024-04-22 20:37:37,14.98316216,0.0002613,70.0021,33.6076,256.1396,103.9472,0.00023704,2.735e-05,0.0,0 STARLINK-5529,1 56495U 23064AZ  24113.85946318  .00002735  00000-0  23704-3 0  9995,2 56495  70.0021  33.6076 0002613 256.1396 103.9472 14.98316216 53869,6950.236,96.108,573.917,570.284,0.0
56495.0,STARLINK-5529,PAYLOAD,2024-04-22 22:13:45,14.98315703,0.0002659,70.0023,33.4394,255.6266,104.4598,0.00023109,2.664e-05,0.0,0 STARLINK-5529,1 56495U 23064AZ  24113.92622412  .00002664  00000-0  23109-3 0  9999,2 56495  70.0023  33.4394 0002659 255.6266 104.4598 14.98315703 53519,6950.237,96.108,573.95,570.254,0.0
56495.0,STARLINK-5529,PAYLOAD,2024-04-23 04:38:18,14.98318157,0.0002661,70.002,32.7659,254.6865,105.4,0.00022534,2.596e-05,0.0,0 STARLINK-5529,1 56495U 23064AZ  24114.19326461  .00002596  00000-0  22534-3 0  9999,2 56495  70.0020  32.7659 0002661 254.6865 105.4000 14.98318157 53558,6950.23,96.108,573.944,570.245,0.0
56495.0,STARLINK-5529,PAYLOAD,2024-04-23 20:39:38,14.98338288,0.0002777,70.0019,31.0831,242.4701,117.6176,-0.00010912,-1.395e-05,0.0,0 STARLINK-5529,1 56495U 23064AZ  24114.86086116 -.00001395  00000-0 -10912-3 0  9998,2 56495  70.0019  31.0831 0002777 242.4701 117.6176 14.98338288 54010,6950.167,96.106,573.962,570.102,0.0
56495.0,STARLINK-5529,PAYLOAD,2024-04-23 22:15:46,14.98339201,0.0002781,70.0019,30.9152,246.1555,113.9313,-0.00012525,-1.587e-05,0.0,0 STARLINK-5529,1 56495U 23064AZ  24114.92762038 -.00001587  00000-0 -12525-3 0  9994,2 56495  70.0019  30.9152 0002781 246.1555 113.9313 14.98339201 53665,6950.164,96.106,573.962,570.097,0.0
56495.0,STARLINK-5529,PAYLOAD,2024-04-24 04:40:18,14.98343443,0.0002788,70.002,30.2414,235.7258,124.3637,-5.0851e-05,-7e-06,0.0,0 STARLINK-5529,1 56495U 23064AZ  24115.19465394 -.00000700  00000-0 -50851-4 0  9990,2 56495  70.0020  30.2414 0002788 235.7258 124.3637 14.98343443 54065,6950.151,96.106,573.954,570.079,0.0
56495.0,STARLINK-5529,PAYLOAD,2024-04-24 20:41:39,14.98324155,0.0001954,70.0019,28.5587,243.8831,116.2127,4.9388e-05,4.96e-06,0.0,0 STARLINK-5529,1 56495U 23064AZ  24115.86226342  .00000496  00000-0  49388-4 0  9995,2 56495  70.0019  28.5587 0001954 243.8831 116.2127 14.98324155 54169,6950.211,96.107,573.434,570.718,0.0
56495.0,STARLINK-5529,PAYLOAD,2024-04-24 22:17:47,14.98326478,0.0002042,70.0017,28.3876,240.505,119.5905,-2.6948e-05,-4.14e-06,0.0,0 STARLINK-5529,1 56495U 23064AZ  24115.92902395 -.00000414  00000-0 -26948-4 0  9990,2 56495  70.0017  28.3876 0002042 240.5050 119.5905 14.98326478 53813,6950.204,96.107,573.488,570.65,0.0
56495.0,STARLINK-5529,PAYLOAD,2024-04-25 04:42:19,14.98328779,0.0002047,70.003,27.7154,242.7862,117.3089,-4.0817e-05,-5.8e-06,0.0,0 STARLINK-5529,1 56495U 23064AZ  24116.19606339 -.00000580  00000-0 -40817-4 0  9994,2 56495  70.0030  27.7154 0002047 242.7862 117.3089 14.98328779 53859,6950.197,96.107,573.484,570.639,0.0
56495.0,STARLINK-5529,PAYLOAD,2024-04-25 20:43:40,14.98329115,0.0002474,70.0018,26.0309,254.8958,105.1928,3.8451e-05,3.66e-06,0.0,0 STARLINK-5529,1 56495U 23064AZ  24116.86366042  .00000366  00000-0  38451-4 0  9993,2 56495  70.0018  26.0309 0002474 254.8958 105.1928 14.98329115 54317,6950.196,96.107,573.78,570.341,0.0
56495.0,STARLINK-5529,PAYLOAD,2024-04-25 22:19:48,14.98330425,0.0002514,70.0017,25.8637,243.7215,116.3686,2.9865e-05,2.63e-06,0.0,0 STARLINK-5529,1 56495U 23064AZ  24116.93041912  .00000263  00000-0  29865-4 0  9992,2 56495  70.0017  25.8637 0002514 243.7215 116.3686 14.98330425 53966,6950.192,96.107,573.804,570.309,0.0
56495.0,STARLINK-5529,PAYLOAD,2024-04-26 11:08:52,14.98339188,0.0002586,70.0013,24.5147,277.9705,82.116,-6.365e-05,-8.52e-06,0.0,0 STARLINK-5529,1 56495U 23064AZ  24117.46449481 -.00000852  00000-0 -63650-4 0  9990,2 56495  70.0013  24.5147 0002586 277.9705  82.1160 14.98339188 54048,6950.164,96.106,573.827,570.232,0.0
56495.0,STARLINK-5529,PAYLOAD,2024-04-26 19:09:31,14.98346899,0.0003,70.001,23.6751,264.9971,95.0846,0.00017345,1.978e-05,0.0,0 STARLINK-5529,1 56495U 23064AZ  24117.79828158  .00001978  00000-0  17345-3 0  9995,2 56495  70.0010  23.6751 0003000 264.9971  95.0846 14.98346899 54455,6950.141,96.106,574.091,569.921,0.0
